<?xml version="1.0" encoding="UTF-8"?>
<ndm xmlns:xsi="http://www.w3.org/2001/XMLSchema-instance" xsi:noNamespaceSchemaLocation="https://sanaregistry.org/r/ndmxml_unqualified/ndmxml-2.0.0-master-2.0.xsd">
<omm id="CCSDS_OMM_VERS" version="2.0">
<header><CREATION_DATE/><ORIGINATOR/></header><body><segment><metadata><OBJECT_NAME>ONEWEB-0136</OBJECT_NAME><OBJECT_ID>2020-100AA</OBJECT_ID><CENTER_NAME>EARTH</CENTER_NAME><REF_FRAME>TEME</REF_FRAME><TIME_SYSTEM>UTC</TIME_SYSTEM><MEAN_ELEMENT_THEORY>SGP4</MEAN_ELEMENT_THEORY></metadata><data><meanElements><EPOCH>2025-10-12T13:45:28.421568</EPOCH><MEAN_MOTION>13.12442585</MEAN_MOTION><ECCENTRICITY>.00019986</ECCENTRICITY><INCLINATION>87.8956</INCLINATION><RA_OF_ASC_NODE>39.8326</RA_OF_ASC_NODE><ARG_OF_PERICENTER>111.9661</ARG_OF_PERICENTER><MEAN_ANOMALY>248.1680</MEAN_ANOMALY></meanElements><tleParameters><EPHEMERIS_TYPE>0</EPHEMERIS_TYPE><CLASSIFICATION_TYPE>U</CLASSIFICATION_TYPE><NORAD_CAT_ID>47282</NORAD_CAT_ID><ELEMENT_SET_NO>999</ELEMENT_SET_NO><REV_AT_EPOCH>23218</REV_AT_EPOCH><BSTAR>-.98927667E-3</BSTAR><MEAN_MOTION_DOT>-.343E-5</MEAN_MOTION_DOT><MEAN_MOTION_DDOT>0</MEAN_MOTION_DDOT></tleParameters></data></segment></body></omm>
<omm id="CCSDS_OMM_VERS" version="2.0">
<header><CREATION_DATE/><ORIGINATOR/></header><body><segment><metadata><OBJECT_NAME>ONEWEB-0137</OBJECT_NAME><OBJECT_ID>2020-100AB</OBJECT_ID><CENTER_NAME>EARTH</CENTER_NAME><REF_FRAME>TEME</REF_FRAME><TIME_SYSTEM>UTC</TIME_SYSTEM><MEAN_ELEMENT_THEORY>SGP4</MEAN_ELEMENT_THEORY></metadata><data><meanElements><EPOCH>2025-10-12T14:34:31.458720</EPOCH><MEAN_MOTION>13.12444891</MEAN_MOTION><ECCENTRICITY>.00018772</ECCENTRICITY><INCLINATION>87.8957</INCLINATION><RA_OF_ASC_NODE>39.8318</RA_OF_ASC_NODE><ARG_OF_PERICENTER>95.7153</ARG_OF_PERICENTER><MEAN_ANOMALY>264.4189</MEAN_ANOMALY></meanElements><tleParameters><EPHEMERIS_TYPE>0</EPHEMERIS_TYPE><CLASSIFICATION_TYPE>U</CLASSIFICATION_TYPE><NORAD_CAT_ID>47283</NORAD_CAT_ID><ELEMENT_SET_NO>999</ELEMENT_SET_NO><REV_AT_EPOCH>23209</REV_AT_EPOCH><BSTAR>.8335356E-3</BSTAR><MEAN_MOTION_DOT>.313E-5</MEAN_MOTION_DOT><MEAN_MOTION_DDOT>0</MEAN_MOTION_DDOT></tleParameters></data></segment></body></omm>
<omm id="CCSDS_OMM_VERS" version="2.0">
<header><CREATION_DATE/><ORIGINATOR/></header><body><segment><metadata><OBJECT_NAME>ONEWEB-0138</OBJECT_NAME><OBJECT_ID>2020-100AC</OBJECT_ID><CENTER_NAME>EARTH</CENTER_NAME><REF_FRAME>TEME</REF_FRAME><TIME_SYSTEM>UTC</TIME_SYSTEM><MEAN_ELEMENT_THEORY>SGP4</MEAN_ELEMENT_THEORY></metadata><data><meanElements><EPOCH>2025-10-12T14:04:08.889600</EPOCH><MEAN_MOTION>13.12442742</MEAN_MOTION><ECCENTRICITY>.00018521</ECCENTRICITY><INCLINATION>87.8954</INCLINATION><RA_OF_ASC_NODE>39.8455</RA_OF_ASC_NODE><ARG_OF_PERICENTER>106.0148</ARG_OF_PERICENTER><MEAN_ANOMALY>254.1185</MEAN_ANOMALY></meanElements><tleParameters><EPHEMERIS_TYPE>0</EPHEMERIS_TYPE><CLASSIFICATION_TYPE>U</CLASSIFICATION_TYPE><NORAD_CAT_ID>47284</NORAD_CAT_ID><ELEMENT_SET_NO>999</ELEMENT_SET_NO><REV_AT_EPOCH>23217</REV_AT_EPOCH><BSTAR>-.79198496E-3</BSTAR><MEAN_MOTION_DOT>-.272E-5</MEAN_MOTION_DOT><MEAN_MOTION_DDOT>0</MEAN_MOTION_DDOT></tleParameters></data></segment></body></omm>
<omm id="CCSDS_OMM_VERS" version="2.0">
<header><CREATION_DATE/><ORIGINATOR/></header><body><segment><metadata><OBJECT_NAME>ONEWEB-0139</OBJECT_NAME><OBJECT_ID>2020-100AD</OBJECT_ID><CENTER_NAME>EARTH</CENTER_NAME><REF_FRAME>TEME</REF_FRAME><TIME_SYSTEM>UTC</TIME_SYSTEM><MEAN_ELEMENT_THEORY>SGP4</MEAN_ELEMENT_THEORY></metadata><data><meanElements><EPOCH>2025-10-12T09:31:04.802304</EPOCH><MEAN_MOTION>13.12443881</MEAN_MOTION><ECCENTRICITY>.00017193</ECCENTRICITY><INCLINATION>87.8952</INCLINATION><RA_OF_ASC_NODE>39.8734</RA_OF_ASC_NODE><ARG_OF_PERICENTER>101.3115</ARG_OF_PERICENTER><MEAN_ANOMALY>258.8207</MEAN_ANOMALY></meanElements><tleParameters><EPHEMERIS_TYPE>0</EPHEMERIS_TYPE><CLASSIFICATION_TYPE>U</CLASSIFICATION_TYPE><NORAD_CAT_ID>47285</NORAD_CAT_ID><ELEMENT_SET_NO>999</ELEMENT_SET_NO><REV_AT_EPOCH>23222</REV_AT_EPOCH><BSTAR>.1003946E-2</BSTAR><MEAN_MOTION_DOT>.374E-5</MEAN_MOTION_DOT><MEAN_MOTION_DDOT>0</MEAN_MOTION_DDOT></tleParameters></data></segment></body></omm>
<omm id="CCSDS_OMM_VERS" version="2.0">
<header><CREATION_DATE/><ORIGINATOR/></header><body><segment><metadata><OBJECT_NAME>ONEWEB-0140</OBJECT_NAME><OBJECT_ID>2020-100AE</OBJECT_ID><CENTER_NAME>EARTH</CENTER_NAME><REF_FRAME>TEME</REF_FRAME><TIME_SYSTEM>UTC</TIME_SYSTEM><MEAN_ELEMENT_THEORY>SGP4</MEAN_ELEMENT_THEORY></metadata><data><meanElements><EPOCH>2025-10-12T13:54:48.590784</EPOCH><MEAN_MOTION>13.12442937</MEAN_MOTION><ECCENTRICITY>.00017782</ECCENTRICITY><INCLINATION>87.8952</INCLINATION><RA_OF_ASC_NODE>39.8221</RA_OF_ASC_NODE><ARG_OF_PERICENTER>104.0589</ARG_OF_PERICENTER><MEAN_ANOMALY>256.0738</MEAN_ANOMALY></meanElements><tleParameters><EPHEMERIS_TYPE>0</EPHEMERIS_TYPE><CLASSIFICATION_TYPE>U</CLASSIFICATION_TYPE><NORAD_CAT_ID>47286</NORAD_CAT_ID><ELEMENT_SET_NO>999</ELEMENT_SET_NO><REV_AT_EPOCH>23221</REV_AT_EPOCH><BSTAR>-.98120814E-3</BSTAR><MEAN_MOTION_DOT>-.34E-5</MEAN_MOTION_DOT><MEAN_MOTION_DDOT>0</MEAN_MOTION_DDOT></tleParameters></data></segment></body></omm>
<omm id="CCSDS_OMM_VERS" version="2.0">
<header><CREATION_DATE/><ORIGINATOR/></header><body><segment><metadata><OBJECT_NAME>ONEWEB-0141</OBJECT_NAME><OBJECT_ID>2020-100AF</OBJECT_ID><CENTER_NAME>EARTH</CENTER_NAME><REF_FRAME>TEME</REF_FRAME><TIME_SYSTEM>UTC</TIME_SYSTEM><MEAN_ELEMENT_THEORY>SGP4</MEAN_ELEMENT_THEORY></metadata><data><meanElements><EPOCH>2025-10-12T13:10:14.726784</EPOCH><MEAN_MOTION>13.12441421</MEAN_MOTION><ECCENTRICITY>.00019257</ECCENTRICITY><INCLINATION>87.8952</INCLINATION><RA_OF_ASC_NODE>39.8417</RA_OF_ASC_NODE><ARG_OF_PERICENTER>92.0921</ARG_OF_PERICENTER><MEAN_ANOMALY>268.0428</MEAN_ANOMALY></meanElements><tleParameters><EPHEMERIS_TYPE>0</EPHEMERIS_TYPE><CLASSIFICATION_TYPE>U</CLASSIFICATION_TYPE><NORAD_CAT_ID>47287</NORAD_CAT_ID><ELEMENT_SET_NO>999</ELEMENT_SET_NO><REV_AT_EPOCH>23219</REV_AT_EPOCH><BSTAR>.11692122E-2</BSTAR><MEAN_MOTION_DOT>.433E-5</MEAN_MOTION_DOT><MEAN_MOTION_DDOT>0</MEAN_MOTION_DDOT></tleParameters></data></segment></body></omm>
<omm id="CCSDS_OMM_VERS" version="2.0">
<header><CREATION_DATE/><ORIGINATOR/></header><body><segment><metadata><OBJECT_NAME>ONEWEB-0142</OBJECT_NAME><OBJECT_ID>2020-100AG</OBJECT_ID><CENTER_NAME>EARTH</CENTER_NAME><REF_FRAME>TEME</REF_FRAME><TIME_SYSTEM>UTC</TIME_SYSTEM><MEAN_ELEMENT_THEORY>SGP4</MEAN_ELEMENT_THEORY></metadata><data><meanElements><EPOCH>2025-10-12T14:44:04.517952</EPOCH><MEAN_MOTION>13.12444297</MEAN_MOTION><ECCENTRICITY>.0002077</ECCENTRICITY><INCLINATION>87.8959</INCLINATION><RA_OF_ASC_NODE>39.8477</RA_OF_ASC_NODE><ARG_OF_PERICENTER>94.4399</ARG_OF_PERICENTER><MEAN_ANOMALY>265.6967</MEAN_ANOMALY></meanElements><tleParameters><EPHEMERIS_TYPE>0</EPHEMERIS_TYPE><CLASSIFICATION_TYPE>U</CLASSIFICATION_TYPE><NORAD_CAT_ID>47288</NORAD_CAT_ID><ELEMENT_SET_NO>999</ELEMENT_SET_NO><REV_AT_EPOCH>23219</REV_AT_EPOCH><BSTAR>.1173805E-2</BSTAR><MEAN_MOTION_DOT>.435E-5</MEAN_MOTION_DOT><MEAN_MOTION_DDOT>0</MEAN_MOTION_DDOT></tleParameters></data></segment></body></omm>
<omm id="CCSDS_OMM_VERS" version="2.0">
<header><CREATION_DATE/><ORIGINATOR/></header><body><segment><metadata><OBJECT_NAME>ONEWEB-0143</OBJECT_NAME><OBJECT_ID>2020-100AH</OBJECT_ID><CENTER_NAME>EARTH</CENTER_NAME><REF_FRAME>TEME</REF_FRAME><TIME_SYSTEM>UTC</TIME_SYSTEM><MEAN_ELEMENT_THEORY>SGP4</MEAN_ELEMENT_THEORY></metadata><data><meanElements><EPOCH>2025-10-12T13:08:06.106560</EPOCH><MEAN_MOTION>13.12442247</MEAN_MOTION><ECCENTRICITY>.00017065</ECCENTRICITY><INCLINATION>87.8959</INCLINATION><RA_OF_ASC_NODE>39.8572</RA_OF_ASC_NODE><ARG_OF_PERICENTER>100.6861</ARG_OF_PERICENTER><MEAN_ANOMALY>259.4460</MEAN_ANOMALY></meanElements><tleParameters><EPHEMERIS_TYPE>0</EPHEMERIS_TYPE><CLASSIFICATION_TYPE>U</CLASSIFICATION_TYPE><NORAD_CAT_ID>47289</NORAD_CAT_ID><ELEMENT_SET_NO>999</ELEMENT_SET_NO><REV_AT_EPOCH>23216</REV_AT_EPOCH><BSTAR>.13731853E-2</BSTAR><MEAN_MOTION_DOT>.507E-5</MEAN_MOTION_DOT><MEAN_MOTION_DDOT>0</MEAN_MOTION_DDOT></tleParameters></data></segment></body></omm>

</ndm>
