ONEWEB-0136             
1 47282U 20100AA  25285.57324562 -.00000343  00000+0 -98928-3 0  9992
2 47282  87.8956  39.8326 0001998 111.9661 248.1680 13.12442585232181
ONEWEB-0137             
1 47283U 20100AB  25285.60730855  .00000313  00000+0  83354-3 0  9995
2 47283  87.8957  39.8318 0001877  95.7153 264.4189 13.12444891232092
ONEWEB-0138             
1 47284U 20100AC  25285.58621400 -.00000272  00000+0 -79198-3 0  9995
2 47284  87.8954  39.8455 0001852 106.0148 254.1185 13.12442742232179
ONEWEB-0139             
1 47285U 20100AD  25285.39658336  .00000374  00000+0  10039-2 0  9992
2 47285  87.8952  39.8734 0001719 101.3115 258.8207 13.12443881232229
ONEWEB-0140             
1 47286U 20100AE  25285.57972906 -.00000340  00000+0 -98121-3 0  9999
2 47286  87.8952  39.8221 0001778 104.0589 256.0738 13.12442937232210
ONEWEB-0141             
1 47287U 20100AF  25285.54878156  .00000433  00000+0  11692-2 0  9997
2 47287  87.8952  39.8417 0001925  92.0921 268.0428 13.12441421232191
ONEWEB-0142             
1 47288U 20100AG  25285.61394118  .00000435  00000+0  11738-2 0  9990
2 47288  87.8959  39.8477 0002077  94.4399 265.6967 13.12444297232194
ONEWEB-0143             
1 47289U 20100AH  25285.54729290  .00000507  00000+0  13732-2 0  9992
2 47289  87.8959  39.8572 0001706 100.6861 259.4460 13.12442247232162
